{
  "type": "FeatureCollection",
  "features": [
    {
      "type": "Feature",
      "geometry": {
        "type": "Point",
        "coordinates": [
          151.212281433748,
          -33.8936156397157
        ]
      },
      "properties": {
        "id": "city-of-sydney:TS04842",
        "name": "Prunus sp. — City of Sydney",
        "suburb": "City of Sydney",
        "group": "Mixed ornamental Prunus",
        "access": "Public access",
        "lastChecked": "2026-08-20",
        "source": "Tree data: City of Sydney, CC BY 4.0",
        "locationType": "tree",
        "scientificName": "Prunus sp.",
        "commonName": "Plum",
        "locationConfidence": "Official",
        "taxonConfidence": "Genus confirmed",
        "evidenceSummary": "Official City of Sydney public tree asset; curator-reviewed for public access and conservatively classified from the source taxonomy.",
        "provenance": {
          "provider": "City of Sydney",
          "dataset": "Trees",
          "sourceRecordId": "TS04842",
          "serviceRowId": "3461",
          "sourceUrl": "https://data.cityofsydney.nsw.gov.au/api/search/v1/collections/dataset/items/15c4713a688a48fcb604fc343118af05_0",
          "licence": "CC BY 4.0",
          "importedAt": "2026-08-20T21:18:33.633Z",
          "reviewedAt": "2026-08-21T00:00:00.000Z"
        }
      }
    },
    {
      "type": "Feature",
      "geometry": {
        "type": "Point",
        "coordinates": [
          151.205781240893,
          -33.9164549219008
        ]
      },
      "properties": {
        "id": "city-of-sydney:TS12800",
        "name": "Prunus sp. — City of Sydney",
        "suburb": "City of Sydney",
        "group": "Mixed ornamental Prunus",
        "access": "Public access",
        "lastChecked": "2026-08-20",
        "source": "Tree data: City of Sydney, CC BY 4.0",
        "locationType": "tree",
        "scientificName": "Prunus sp.",
        "commonName": "Plum",
        "locationConfidence": "Official",
        "taxonConfidence": "Genus confirmed",
        "evidenceSummary": "Official City of Sydney public tree asset; curator-reviewed for public access and conservatively classified from the source taxonomy.",
        "provenance": {
          "provider": "City of Sydney",
          "dataset": "Trees",
          "sourceRecordId": "TS12800",
          "serviceRowId": "4008",
          "sourceUrl": "https://data.cityofsydney.nsw.gov.au/api/search/v1/collections/dataset/items/15c4713a688a48fcb604fc343118af05_0",
          "licence": "CC BY 4.0",
          "importedAt": "2026-08-20T21:18:33.635Z",
          "reviewedAt": "2026-08-21T00:00:00.000Z"
        }
      }
    },
    {
      "type": "Feature",
      "geometry": {
        "type": "Point",
        "coordinates": [
          151.206728144904,
          -33.9173600831199
        ]
      },
      "properties": {
        "id": "city-of-sydney:TS13888",
        "name": "Prunus sp. — City of Sydney",
        "suburb": "City of Sydney",
        "group": "Mixed ornamental Prunus",
        "access": "Public access",
        "lastChecked": "2026-08-20",
        "source": "Tree data: City of Sydney, CC BY 4.0",
        "locationType": "tree",
        "scientificName": "Prunus sp.",
        "commonName": "Plum",
        "locationConfidence": "Official",
        "taxonConfidence": "Genus confirmed",
        "evidenceSummary": "Official City of Sydney public tree asset; curator-reviewed for public access and conservatively classified from the source taxonomy.",
        "provenance": {
          "provider": "City of Sydney",
          "dataset": "Trees",
          "sourceRecordId": "TS13888",
          "serviceRowId": "4116",
          "sourceUrl": "https://data.cityofsydney.nsw.gov.au/api/search/v1/collections/dataset/items/15c4713a688a48fcb604fc343118af05_0",
          "licence": "CC BY 4.0",
          "importedAt": "2026-08-20T21:18:33.635Z",
          "reviewedAt": "2026-08-21T00:00:00.000Z"
        }
      }
    },
    {
      "type": "Feature",
      "geometry": {
        "type": "Point",
        "coordinates": [
          151.176769376747,
          -33.8819025591927
        ]
      },
      "properties": {
        "id": "city-of-sydney:TS28229",
        "name": "Prunus x blireana — City of Sydney",
        "suburb": "City of Sydney",
        "group": "Flowering plum",
        "access": "Public access",
        "lastChecked": "2026-08-20",
        "source": "Tree data: City of Sydney, CC BY 4.0",
        "locationType": "tree",
        "scientificName": "Prunus x blireana",
        "commonName": "Purple-leafed Plum",
        "locationConfidence": "Official",
        "taxonConfidence": "Species confirmed",
        "evidenceSummary": "Official City of Sydney public tree asset; curator-reviewed for public access and conservatively classified from the source taxonomy.",
        "provenance": {
          "provider": "City of Sydney",
          "dataset": "Trees",
          "sourceRecordId": "TS28229",
          "serviceRowId": "8231",
          "sourceUrl": "https://data.cityofsydney.nsw.gov.au/api/search/v1/collections/dataset/items/15c4713a688a48fcb604fc343118af05_0",
          "licence": "CC BY 4.0",
          "importedAt": "2026-08-20T21:18:33.635Z",
          "reviewedAt": "2026-08-21T00:00:00.000Z"
        }
      }
    },
    {
      "type": "Feature",
      "geometry": {
        "type": "Point",
        "coordinates": [
          151.176634562443,
          -33.8808809717275
        ]
      },
      "properties": {
        "id": "city-of-sydney:TS28232",
        "name": "Prunus x blireana — City of Sydney",
        "suburb": "City of Sydney",
        "group": "Flowering plum",
        "access": "Public access",
        "lastChecked": "2026-08-20",
        "source": "Tree data: City of Sydney, CC BY 4.0",
        "locationType": "tree",
        "scientificName": "Prunus x blireana",
        "commonName": "Purple-leafed Plum",
        "locationConfidence": "Official",
        "taxonConfidence": "Species confirmed",
        "evidenceSummary": "Official City of Sydney public tree asset; curator-reviewed for public access and conservatively classified from the source taxonomy.",
        "provenance": {
          "provider": "City of Sydney",
          "dataset": "Trees",
          "sourceRecordId": "TS28232",
          "serviceRowId": "8237",
          "sourceUrl": "https://data.cityofsydney.nsw.gov.au/api/search/v1/collections/dataset/items/15c4713a688a48fcb604fc343118af05_0",
          "licence": "CC BY 4.0",
          "importedAt": "2026-08-20T21:18:33.635Z",
          "reviewedAt": "2026-08-21T00:00:00.000Z"
        }
      }
    },
    {
      "type": "Feature",
      "geometry": {
        "type": "Point",
        "coordinates": [
          151.176662348764,
          -33.8810994226028
        ]
      },
      "properties": {
        "id": "city-of-sydney:TS28234",
        "name": "Prunus x blireana — City of Sydney",
        "suburb": "City of Sydney",
        "group": "Flowering plum",
        "access": "Public access",
        "lastChecked": "2026-08-20",
        "source": "Tree data: City of Sydney, CC BY 4.0",
        "locationType": "tree",
        "scientificName": "Prunus x blireana",
        "commonName": "Purple-leafed Plum",
        "locationConfidence": "Official",
        "taxonConfidence": "Species confirmed",
        "evidenceSummary": "Official City of Sydney public tree asset; curator-reviewed for public access and conservatively classified from the source taxonomy.",
        "provenance": {
          "provider": "City of Sydney",
          "dataset": "Trees",
          "sourceRecordId": "TS28234",
          "serviceRowId": "8241",
          "sourceUrl": "https://data.cityofsydney.nsw.gov.au/api/search/v1/collections/dataset/items/15c4713a688a48fcb604fc343118af05_0",
          "licence": "CC BY 4.0",
          "importedAt": "2026-08-20T21:18:33.635Z",
          "reviewedAt": "2026-08-21T00:00:00.000Z"
        }
      }
    },
    {
      "type": "Feature",
      "geometry": {
        "type": "Point",
        "coordinates": [
          151.176673298176,
          -33.8812047270029
        ]
      },
      "properties": {
        "id": "city-of-sydney:TS28235",
        "name": "Prunus x blireana — City of Sydney",
        "suburb": "City of Sydney",
        "group": "Flowering plum",
        "access": "Public access",
        "lastChecked": "2026-08-20",
        "source": "Tree data: City of Sydney, CC BY 4.0",
        "locationType": "tree",
        "scientificName": "Prunus x blireana",
        "commonName": "Purple-leafed Plum",
        "locationConfidence": "Official",
        "taxonConfidence": "Species confirmed",
        "evidenceSummary": "Official City of Sydney public tree asset; curator-reviewed for public access and conservatively classified from the source taxonomy.",
        "provenance": {
          "provider": "City of Sydney",
          "dataset": "Trees",
          "sourceRecordId": "TS28235",
          "serviceRowId": "8245",
          "sourceUrl": "https://data.cityofsydney.nsw.gov.au/api/search/v1/collections/dataset/items/15c4713a688a48fcb604fc343118af05_0",
          "licence": "CC BY 4.0",
          "importedAt": "2026-08-20T21:18:33.635Z",
          "reviewedAt": "2026-08-21T00:00:00.000Z"
        }
      }
    },
    {
      "type": "Feature",
      "geometry": {
        "type": "Point",
        "coordinates": [
          151.176690402572,
          -33.8813256323496
        ]
      },
      "properties": {
        "id": "city-of-sydney:TS28236",
        "name": "Prunus x blireana — City of Sydney",
        "suburb": "City of Sydney",
        "group": "Flowering plum",
        "access": "Public access",
        "lastChecked": "2026-08-20",
        "source": "Tree data: City of Sydney, CC BY 4.0",
        "locationType": "tree",
        "scientificName": "Prunus x blireana",
        "commonName": "Purple-leafed Plum",
        "locationConfidence": "Official",
        "taxonConfidence": "Species confirmed",
        "evidenceSummary": "Official City of Sydney public tree asset; curator-reviewed for public access and conservatively classified from the source taxonomy.",
        "provenance": {
          "provider": "City of Sydney",
          "dataset": "Trees",
          "sourceRecordId": "TS28236",
          "serviceRowId": "8249",
          "sourceUrl": "https://data.cityofsydney.nsw.gov.au/api/search/v1/collections/dataset/items/15c4713a688a48fcb604fc343118af05_0",
          "licence": "CC BY 4.0",
          "importedAt": "2026-08-20T21:18:33.635Z",
          "reviewedAt": "2026-08-21T00:00:00.000Z"
        }
      }
    },
    {
      "type": "Feature",
      "geometry": {
        "type": "Point",
        "coordinates": [
          151.176715332691,
          -33.8815004871166
        ]
      },
      "properties": {
        "id": "city-of-sydney:TS28237",
        "name": "Prunus x blireana — City of Sydney",
        "suburb": "City of Sydney",
        "group": "Flowering plum",
        "access": "Public access",
        "lastChecked": "2026-08-20",
        "source": "Tree data: City of Sydney, CC BY 4.0",
        "locationType": "tree",
        "scientificName": "Prunus x blireana",
        "commonName": "Purple-leafed Plum",
        "locationConfidence": "Official",
        "taxonConfidence": "Species confirmed",
        "evidenceSummary": "Official City of Sydney public tree asset; curator-reviewed for public access and conservatively classified from the source taxonomy.",
        "provenance": {
          "provider": "City of Sydney",
          "dataset": "Trees",
          "sourceRecordId": "TS28237",
          "serviceRowId": "8253",
          "sourceUrl": "https://data.cityofsydney.nsw.gov.au/api/search/v1/collections/dataset/items/15c4713a688a48fcb604fc343118af05_0",
          "licence": "CC BY 4.0",
          "importedAt": "2026-08-20T21:18:33.635Z",
          "reviewedAt": "2026-08-21T00:00:00.000Z"
        }
      }
    },
    {
      "type": "Feature",
      "geometry": {
        "type": "Point",
        "coordinates": [
          151.176725927166,
          -33.8815919897057
        ]
      },
      "properties": {
        "id": "city-of-sydney:TS28238",
        "name": "Prunus x blireana — City of Sydney",
        "suburb": "City of Sydney",
        "group": "Flowering plum",
        "access": "Public access",
        "lastChecked": "2026-08-20",
        "source": "Tree data: City of Sydney, CC BY 4.0",
        "locationType": "tree",
        "scientificName": "Prunus x blireana",
        "commonName": "Purple-leafed Plum",
        "locationConfidence": "Official",
        "taxonConfidence": "Species confirmed",
        "evidenceSummary": "Official City of Sydney public tree asset; curator-reviewed for public access and conservatively classified from the source taxonomy.",
        "provenance": {
          "provider": "City of Sydney",
          "dataset": "Trees",
          "sourceRecordId": "TS28238",
          "serviceRowId": "8257",
          "sourceUrl": "https://data.cityofsydney.nsw.gov.au/api/search/v1/collections/dataset/items/15c4713a688a48fcb604fc343118af05_0",
          "licence": "CC BY 4.0",
          "importedAt": "2026-08-20T21:18:33.635Z",
          "reviewedAt": "2026-08-21T00:00:00.000Z"
        }
      }
    },
    {
      "type": "Feature",
      "geometry": {
        "type": "Point",
        "coordinates": [
          151.176753187456,
          -33.8817996119379
        ]
      },
      "properties": {
        "id": "city-of-sydney:TS28240",
        "name": "Prunus x blireana — City of Sydney",
        "suburb": "City of Sydney",
        "group": "Flowering plum",
        "access": "Public access",
        "lastChecked": "2026-08-20",
        "source": "Tree data: City of Sydney, CC BY 4.0",
        "locationType": "tree",
        "scientificName": "Prunus x blireana",
        "commonName": "Purple-leafed Plum",
        "locationConfidence": "Official",
        "taxonConfidence": "Species confirmed",
        "evidenceSummary": "Official City of Sydney public tree asset; curator-reviewed for public access and conservatively classified from the source taxonomy.",
        "provenance": {
          "provider": "City of Sydney",
          "dataset": "Trees",
          "sourceRecordId": "TS28240",
          "serviceRowId": "8261",
          "sourceUrl": "https://data.cityofsydney.nsw.gov.au/api/search/v1/collections/dataset/items/15c4713a688a48fcb604fc343118af05_0",
          "licence": "CC BY 4.0",
          "importedAt": "2026-08-20T21:18:33.635Z",
          "reviewedAt": "2026-08-21T00:00:00.000Z"
        }
      }
    },
    {
      "type": "Feature",
      "geometry": {
        "type": "Point",
        "coordinates": [
          151.189419198611,
          -33.9114913102973
        ]
      },
      "properties": {
        "id": "city-of-sydney:TS06358",
        "name": "Prunus cerasifera Nigra — City of Sydney",
        "suburb": "City of Sydney",
        "group": "Flowering plum",
        "access": "Public access",
        "lastChecked": "2026-08-20",
        "source": "Tree data: City of Sydney, CC BY 4.0",
        "locationType": "tree",
        "scientificName": "Prunus cerasifera Nigra",
        "commonName": "Black Cherry Plum",
        "locationConfidence": "Official",
        "taxonConfidence": "Species confirmed",
        "evidenceSummary": "Official City of Sydney public tree asset; curator-reviewed for public access and conservatively classified from the source taxonomy.",
        "provenance": {
          "provider": "City of Sydney",
          "dataset": "Trees",
          "sourceRecordId": "TS06358",
          "serviceRowId": "14937",
          "sourceUrl": "https://data.cityofsydney.nsw.gov.au/api/search/v1/collections/dataset/items/15c4713a688a48fcb604fc343118af05_0",
          "licence": "CC BY 4.0",
          "importedAt": "2026-08-20T21:18:33.635Z",
          "reviewedAt": "2026-08-21T00:00:00.000Z"
        }
      }
    },
    {
      "type": "Feature",
      "geometry": {
        "type": "Point",
        "coordinates": [
          151.189395411456,
          -33.911531899231
        ]
      },
      "properties": {
        "id": "city-of-sydney:TS06359",
        "name": "Prunus cerasifera Nigra — City of Sydney",
        "suburb": "City of Sydney",
        "group": "Flowering plum",
        "access": "Public access",
        "lastChecked": "2026-08-20",
        "source": "Tree data: City of Sydney, CC BY 4.0",
        "locationType": "tree",
        "scientificName": "Prunus cerasifera Nigra",
        "commonName": "Black Cherry Plum",
        "locationConfidence": "Official",
        "taxonConfidence": "Species confirmed",
        "evidenceSummary": "Official City of Sydney public tree asset; curator-reviewed for public access and conservatively classified from the source taxonomy.",
        "provenance": {
          "provider": "City of Sydney",
          "dataset": "Trees",
          "sourceRecordId": "TS06359",
          "serviceRowId": "14939",
          "sourceUrl": "https://data.cityofsydney.nsw.gov.au/api/search/v1/collections/dataset/items/15c4713a688a48fcb604fc343118af05_0",
          "licence": "CC BY 4.0",
          "importedAt": "2026-08-20T21:18:33.635Z",
          "reviewedAt": "2026-08-21T00:00:00.000Z"
        }
      }
    },
    {
      "type": "Feature",
      "geometry": {
        "type": "Point",
        "coordinates": [
          151.206796404625,
          -33.9171944364437
        ]
      },
      "properties": {
        "id": "city-of-sydney:TS13885",
        "name": "Prunus sp. — City of Sydney",
        "suburb": "City of Sydney",
        "group": "Mixed ornamental Prunus",
        "access": "Public access",
        "lastChecked": "2026-08-20",
        "source": "Tree data: City of Sydney, CC BY 4.0",
        "locationType": "tree",
        "scientificName": "Prunus sp.",
        "commonName": null,
        "locationConfidence": "Official",
        "taxonConfidence": "Genus confirmed",
        "evidenceSummary": "Official City of Sydney public tree asset; curator-reviewed for public access and conservatively classified from the source taxonomy.",
        "provenance": {
          "provider": "City of Sydney",
          "dataset": "Trees",
          "sourceRecordId": "TS13885",
          "serviceRowId": "21049",
          "sourceUrl": "https://data.cityofsydney.nsw.gov.au/api/search/v1/collections/dataset/items/15c4713a688a48fcb604fc343118af05_0",
          "licence": "CC BY 4.0",
          "importedAt": "2026-08-20T21:18:33.635Z",
          "reviewedAt": "2026-08-21T00:00:00.000Z"
        }
      }
    },
    {
      "type": "Feature",
      "geometry": {
        "type": "Point",
        "coordinates": [
          151.206543162531,
          -33.917939369221
        ]
      },
      "properties": {
        "id": "city-of-sydney:TS13874",
        "name": "Prunus cerasifera — City of Sydney",
        "suburb": "City of Sydney",
        "group": "Flowering plum",
        "access": "Public access",
        "lastChecked": "2026-08-20",
        "source": "Tree data: City of Sydney, CC BY 4.0",
        "locationType": "tree",
        "scientificName": "Prunus cerasifera",
        "commonName": "Cherry Plum",
        "locationConfidence": "Official",
        "taxonConfidence": "Species confirmed",
        "evidenceSummary": "Official City of Sydney public tree asset; curator-reviewed for public access and conservatively classified from the source taxonomy.",
        "provenance": {
          "provider": "City of Sydney",
          "dataset": "Trees",
          "sourceRecordId": "TS13874",
          "serviceRowId": "22052",
          "sourceUrl": "https://data.cityofsydney.nsw.gov.au/api/search/v1/collections/dataset/items/15c4713a688a48fcb604fc343118af05_0",
          "licence": "CC BY 4.0",
          "importedAt": "2026-08-20T21:18:33.635Z",
          "reviewedAt": "2026-08-21T00:00:00.000Z"
        }
      }
    },
    {
      "type": "Feature",
      "geometry": {
        "type": "Point",
        "coordinates": [
          151.226162467817,
          -33.8869653427921
        ]
      },
      "properties": {
        "id": "city-of-sydney:TS35634",
        "name": "Prunus cerasifera — City of Sydney",
        "suburb": "City of Sydney",
        "group": "Flowering plum",
        "access": "Public access",
        "lastChecked": "2026-08-20",
        "source": "Tree data: City of Sydney, CC BY 4.0",
        "locationType": "tree",
        "scientificName": "Prunus cerasifera",
        "commonName": "Cherry Plum",
        "locationConfidence": "Official",
        "taxonConfidence": "Species confirmed",
        "evidenceSummary": "Official City of Sydney public tree asset; curator-reviewed for public access and conservatively classified from the source taxonomy.",
        "provenance": {
          "provider": "City of Sydney",
          "dataset": "Trees",
          "sourceRecordId": "TS35634",
          "serviceRowId": "42865",
          "sourceUrl": "https://data.cityofsydney.nsw.gov.au/api/search/v1/collections/dataset/items/15c4713a688a48fcb604fc343118af05_0",
          "licence": "CC BY 4.0",
          "importedAt": "2026-08-20T21:18:33.635Z",
          "reviewedAt": "2026-08-21T00:00:00.000Z"
        }
      }
    },
    {
      "type": "Feature",
      "geometry": {
        "type": "Point",
        "coordinates": [
          151.219062416331,
          -33.8839442218603
        ]
      },
      "properties": {
        "id": "city-of-sydney:TS37304",
        "name": "Prunus sp. — City of Sydney",
        "suburb": "City of Sydney",
        "group": "Mixed ornamental Prunus",
        "access": "Public access",
        "lastChecked": "2026-08-20",
        "source": "Tree data: City of Sydney, CC BY 4.0",
        "locationType": "tree",
        "scientificName": "Prunus sp.",
        "commonName": "Plum",
        "locationConfidence": "Official",
        "taxonConfidence": "Genus confirmed",
        "evidenceSummary": "Official City of Sydney public tree asset; curator-reviewed for public access and conservatively classified from the source taxonomy.",
        "provenance": {
          "provider": "City of Sydney",
          "dataset": "Trees",
          "sourceRecordId": "TS37304",
          "serviceRowId": "43120",
          "sourceUrl": "https://data.cityofsydney.nsw.gov.au/api/search/v1/collections/dataset/items/15c4713a688a48fcb604fc343118af05_0",
          "licence": "CC BY 4.0",
          "importedAt": "2026-08-20T21:18:33.635Z",
          "reviewedAt": "2026-08-21T00:00:00.000Z"
        }
      }
    },
    {
      "type": "Feature",
      "geometry": {
        "type": "Point",
        "coordinates": [
          151.221205544145,
          -33.8715684514528
        ]
      },
      "properties": {
        "id": "city-of-sydney:TS42302",
        "name": "Prunus cerasifera — City of Sydney",
        "suburb": "City of Sydney",
        "group": "Flowering plum",
        "access": "Public access",
        "lastChecked": "2026-08-20",
        "source": "Tree data: City of Sydney, CC BY 4.0",
        "locationType": "tree",
        "scientificName": "Prunus cerasifera",
        "commonName": null,
        "locationConfidence": "Official",
        "taxonConfidence": "Species confirmed",
        "evidenceSummary": "Official City of Sydney public tree asset; curator-reviewed for public access and conservatively classified from the source taxonomy.",
        "provenance": {
          "provider": "City of Sydney",
          "dataset": "Trees",
          "sourceRecordId": "TS42302",
          "serviceRowId": "44818",
          "sourceUrl": "https://data.cityofsydney.nsw.gov.au/api/search/v1/collections/dataset/items/15c4713a688a48fcb604fc343118af05_0",
          "licence": "CC BY 4.0",
          "importedAt": "2026-08-20T21:18:33.635Z",
          "reviewedAt": "2026-08-21T00:00:00.000Z"
        }
      }
    },
    {
      "type": "Feature",
      "geometry": {
        "type": "Point",
        "coordinates": [
          151.196293484266,
          -33.8887306551413
        ]
      },
      "properties": {
        "id": "city-of-sydney:TS44629",
        "name": "Prunus sp. — City of Sydney",
        "suburb": "City of Sydney",
        "group": "Mixed ornamental Prunus",
        "access": "Public access",
        "lastChecked": "2026-08-20",
        "source": "Tree data: City of Sydney, CC BY 4.0",
        "locationType": "tree",
        "scientificName": "Prunus sp.",
        "commonName": "Plum",
        "locationConfidence": "Official",
        "taxonConfidence": "Genus confirmed",
        "evidenceSummary": "Official City of Sydney public tree asset; curator-reviewed for public access and conservatively classified from the source taxonomy.",
        "provenance": {
          "provider": "City of Sydney",
          "dataset": "Trees",
          "sourceRecordId": "TS44629",
          "serviceRowId": "45928",
          "sourceUrl": "https://data.cityofsydney.nsw.gov.au/api/search/v1/collections/dataset/items/15c4713a688a48fcb604fc343118af05_0",
          "licence": "CC BY 4.0",
          "importedAt": "2026-08-20T21:18:33.635Z",
          "reviewedAt": "2026-08-21T00:00:00.000Z"
        }
      }
    },
    {
      "type": "Feature",
      "geometry": {
        "type": "Point",
        "coordinates": [
          151.205873332759,
          -33.9167415731644
        ]
      },
      "properties": {
        "id": "city-of-sydney:TS45272",
        "name": "Prunus sp. — City of Sydney",
        "suburb": "City of Sydney",
        "group": "Mixed ornamental Prunus",
        "access": "Public access",
        "lastChecked": "2026-08-20",
        "source": "Tree data: City of Sydney, CC BY 4.0",
        "locationType": "tree",
        "scientificName": "Prunus sp.",
        "commonName": null,
        "locationConfidence": "Official",
        "taxonConfidence": "Genus confirmed",
        "evidenceSummary": "Official City of Sydney public tree asset; curator-reviewed for public access and conservatively classified from the source taxonomy.",
        "provenance": {
          "provider": "City of Sydney",
          "dataset": "Trees",
          "sourceRecordId": "TS45272",
          "serviceRowId": "46277",
          "sourceUrl": "https://data.cityofsydney.nsw.gov.au/api/search/v1/collections/dataset/items/15c4713a688a48fcb604fc343118af05_0",
          "licence": "CC BY 4.0",
          "importedAt": "2026-08-20T21:18:33.635Z",
          "reviewedAt": "2026-08-21T00:00:00.000Z"
        }
      }
    },
    {
      "type": "Feature",
      "geometry": {
        "type": "Point",
        "coordinates": [
          151.189807919664,
          -33.9056498206611
        ]
      },
      "properties": {
        "id": "city-of-sydney:TS45399",
        "name": "Prunus sp. — City of Sydney",
        "suburb": "City of Sydney",
        "group": "Mixed ornamental Prunus",
        "access": "Public access",
        "lastChecked": "2026-08-20",
        "source": "Tree data: City of Sydney, CC BY 4.0",
        "locationType": "tree",
        "scientificName": "Prunus sp.",
        "commonName": null,
        "locationConfidence": "Official",
        "taxonConfidence": "Genus confirmed",
        "evidenceSummary": "Official City of Sydney public tree asset; curator-reviewed for public access and conservatively classified from the source taxonomy.",
        "provenance": {
          "provider": "City of Sydney",
          "dataset": "Trees",
          "sourceRecordId": "TS45399",
          "serviceRowId": "46392",
          "sourceUrl": "https://data.cityofsydney.nsw.gov.au/api/search/v1/collections/dataset/items/15c4713a688a48fcb604fc343118af05_0",
          "licence": "CC BY 4.0",
          "importedAt": "2026-08-20T21:18:33.635Z",
          "reviewedAt": "2026-08-21T00:00:00.000Z"
        }
      }
    },
    {
      "type": "Feature",
      "geometry": {
        "type": "Point",
        "coordinates": [
          151.0173874,
          -33.8593518
        ]
      },
      "properties": {
        "id": "cumberland:auburn-botanic-gardens",
        "name": "Auburn Botanic Gardens Cherry Blossom Trail",
        "suburb": "Auburn",
        "streetAddress": "99 Chiswick Road, Auburn",
        "councilArea": "Cumberland City Council",
        "group": "Flowering cherry",
        "access": "Ticketed venue",
        "lastChecked": "2026-08-21",
        "source": "Auburn Botanic Gardens and Cherry Blossom Trail — Cumberland City Council",
        "locationType": "venue",
        "commonName": "Cherry blossoms",
        "locationConfidence": "Official",
        "taxonConfidence": "Cherry group confirmed; species not published",
        "evidenceSummary": "Cumberland City Council's official trail page confirms more than 200 blooming cherry trees in the Japanese Gardens. This record marks the public venue, not individual trees.",
        "visitorNotes": "Check the Council website for current hours, entry fees and festival booking. Follow staff signs; food is not permitted in the Japanese Gardens.",
        "visitorInfoUrl": "https://www.cumberland.nsw.gov.au/auburn-botanic-gardens",
        "provenance": {
          "provider": "Cumberland City Council",
          "dataset": "Official venue and Cherry Blossom Trail pages",
          "sourceRecordId": "auburn-botanic-gardens-cherry-blossom-trail",
          "sourceUrl": "https://www.cumberland.nsw.gov.au/cherry-blossom-trail",
          "reuseBasis": "Manually curated factual venue record; no Council text, dataset or media reproduced",
          "importedAt": "2026-08-20T23:43:04.000Z",
          "reviewedAt": "2026-08-20T23:43:04.000Z"
        }
      }
    },
    {
      "type": "Feature",
      "geometry": {
        "type": "Point",
        "coordinates": [
          151.045227,
          -33.6405348
        ]
      },
      "properties": {
        "id": "hornsby:fagan-park-japanese-garden",
        "name": "Fagan Park Japanese Garden Cherry Grove",
        "suburb": "Galston",
        "streetAddress": "38–48 Arcadia Road, Galston",
        "councilArea": "Hornsby Shire Council",
        "group": "Flowering cherry",
        "access": "Public access",
        "lastChecked": "2026-08-21",
        "source": "Fagan Park — Hornsby Shire Council",
        "locationType": "venue",
        "commonName": "Cherry grove",
        "locationConfidence": "Official",
        "taxonConfidence": "Cherry group confirmed; species not published",
        "evidenceSummary": "Hornsby Shire Council identifies a cherry grove in Fagan Park's Japanese Garden. This record marks the public garden venue, not individual trees.",
        "visitorNotes": "The park has daily opening hours and paid parking. Check Council information before travelling and stay on garden paths.",
        "visitorInfoUrl": "https://www.hornsby.nsw.gov.au/Community/Sports-and-recreation/Parks-and-playgrounds/Fagan-Park",
        "provenance": {
          "provider": "Hornsby Shire Council",
          "dataset": "Official Fagan Park page",
          "sourceRecordId": "fagan-park-japanese-garden-cherry-grove",
          "sourceUrl": "https://www.hornsby.nsw.gov.au/Community/Sports-and-recreation/Parks-and-playgrounds/Fagan-Park",
          "reuseBasis": "Manually curated factual venue record; no Council text, dataset or media reproduced",
          "importedAt": "2026-08-21T00:02:30.000Z",
          "reviewedAt": "2026-08-21T00:02:30.000Z"
        }
      }
    },
    {
      "type": "Feature",
      "geometry": {
        "type": "Point",
        "coordinates": [
          150.8082449,
          -34.0704597
        ]
      },
      "properties": {
        "id": "campbelltown:koshigaya-park",
        "name": "Koshigaya Park Cherry Blossoms",
        "suburb": "Campbelltown",
        "streetAddress": "Koshigaya Park, Campbelltown",
        "councilArea": "Campbelltown City Council",
        "group": "Flowering cherry",
        "access": "Public access",
        "lastChecked": "2026-08-21",
        "source": "Major Sister City Projects — Campbelltown City Council",
        "locationType": "venue",
        "commonName": "Cherry blossom trees",
        "locationConfidence": "Official",
        "taxonConfidence": "Cherry group confirmed; species not published",
        "evidenceSummary": "Campbelltown City Council confirms existing cherry blossom trees in Koshigaya Park and records a gift of 100 trees in 1999. This venue record does not count planned upgrade plantings as established trees.",
        "visitorNotes": "This pin marks the public park, not individual trees. Construction and access conditions can change during the playground upgrade.",
        "visitorInfoUrl": "https://www.campbelltown.nsw.gov.au/City-Improvements/KoshigayaPlayground",
        "provenance": {
          "provider": "Campbelltown City Council",
          "dataset": "Official sister-city and park upgrade pages",
          "sourceRecordId": "koshigaya-park-cherry-blossom-trees",
          "sourceUrl": "https://www.campbelltown.nsw.gov.au/About-Campbelltown/Sister-Cities/Koshigaya/Major-Sister-City-Projects",
          "reuseBasis": "Manually curated factual venue record; no Council text, dataset or media reproduced",
          "importedAt": "2026-08-21T00:02:30.000Z",
          "reviewedAt": "2026-08-21T00:02:30.000Z"
        }
      }
    },
    {
      "type": "Feature",
      "geometry": {
        "type": "Point",
        "coordinates": [
          151.2170587,
          -33.8646641
        ]
      },
      "properties": {
        "id": "botanic-gardens-sydney:millennium-cherries",
        "name": "Royal Botanic Garden Millennium Cherries",
        "suburb": "Sydney",
        "streetAddress": "Mrs Macquaries Road, Sydney",
        "councilArea": "City of Sydney",
        "group": "Flowering cherry",
        "access": "Public access",
        "lastChecked": "2026-08-21",
        "source": "Winter Walk Highlights — Botanic Gardens of Sydney",
        "locationType": "venue",
        "commonName": "Millennium Cherry",
        "locationConfidence": "Official",
        "taxonConfidence": "Prunus hybrid confirmed; official sources conflict on the cultivar spelling",
        "evidenceSummary": "Botanic Gardens of Sydney identifies three Millennium Cherry trees, hybrids of Prunus avium and Prunus campanulata, along the path left of the pond from Botanic House and Farm Cove Eatery. Official publications vary between ‘Yvonne Mathies’ and ‘Yvonne Matthies’, so the cultivar spelling is not presented as settled.",
        "visitorNotes": "This area-level pin marks the official approach landmark, not an individual tree. The Garden is free and open daily; seasonal flowering varies.",
        "visitorInfoUrl": "https://www.botanicgardens.org.au/royal-botanic-garden-sydney",
        "provenance": {
          "provider": "Botanic Gardens of Sydney",
          "dataset": "Official Winter Walk Highlights page",
          "sourceRecordId": "royal-botanic-garden-millennium-cherries",
          "sourceUrl": "https://www.botanicgardens.org.au/index.php/discover-and-learn/watch-listen-read/winter-walk-highlights-royal-botanic-garden-sydney",
          "reuseBasis": "Manually curated factual venue record; no source text, dataset or media reproduced",
          "importedAt": "2026-08-21T00:02:30.000Z",
          "reviewedAt": "2026-08-21T00:02:30.000Z"
        }
      }
    },
    {
      "type": "Feature",
      "geometry": {
        "type": "Point",
        "coordinates": [
          150.9951386,
          -33.8037627
        ]
      },
      "properties": {
        "id": "greater-sydney-parklands:wistaria-gardens-flowering-peaches",
        "name": "Wistaria Gardens Flowering Peaches",
        "suburb": "Westmead",
        "streetAddress": "1 Hainsworth Street, Westmead",
        "councilArea": "City of Parramatta",
        "group": "Flowering peach",
        "access": "Public access",
        "lastChecked": "2026-08-21",
        "source": "Wistaria Gardens — Greater Sydney Parklands",
        "locationType": "venue",
        "scientificName": "Prunus persica cv.",
        "commonName": "Flowering peach",
        "locationConfidence": "Official",
        "taxonConfidence": "Species confirmed by the official venue page; cultivars not published",
        "evidenceSummary": "Greater Sydney Parklands lists flowering peach, Prunus persica cultivars, among Wistaria Gardens' plant species. This area-level record marks the public garden, not individual trees.",
        "visitorNotes": "Pedestrian access is available at all hours, but restoration work can affect routes. Use the current venue guidance and enter from public garden paths rather than the former hospital site.",
        "visitorInfoUrl": "https://www.greatersydneyparklands.nsw.gov.au/explore/wistaria-gardens",
        "provenance": {
          "provider": "Greater Sydney Parklands",
          "dataset": "Official Wistaria Gardens venue page",
          "sourceRecordId": "wistaria-gardens-flowering-peach",
          "sourceUrl": "https://www.greatersydneyparklands.nsw.gov.au/explore/wistaria-gardens",
          "reuseBasis": "Manually curated factual venue record; no source text, dataset, plan diagram or media reproduced",
          "importedAt": "2026-08-21T00:37:23.000Z",
          "reviewedAt": "2026-08-21T00:37:23.000Z"
        }
      }
    },
    {
      "type": "Feature",
      "geometry": {
        "type": "Point",
        "coordinates": [
          150.907628313,
          -33.6758158602
        ]
      },
      "properties": {
        "id": "heritage-nsw:rouse-hill-estate-purple-cherry-plum",
        "name": "Rouse Hill Estate Purple Cherry Plum",
        "suburb": "Rouse Hill",
        "streetAddress": "356 Annangrove Road, Rouse Hill",
        "councilArea": "Blacktown City Council",
        "group": "Flowering plum",
        "access": "Ticketed venue",
        "lastChecked": "2026-08-21",
        "source": "Rouse Hill House and Farm — Heritage NSW",
        "locationType": "venue",
        "scientificName": "Prunus cerasifera ‘Nigra’",
        "commonName": "Purple cherry plum",
        "locationConfidence": "Official",
        "taxonConfidence": "Cultivar confirmed in the official heritage record",
        "evidenceSummary": "Heritage NSW records purple cherry plum, Prunus cerasifera ‘Nigra’, among the estate garden's notable plantings, citing a 2019 site visit. This pin marks the estate, not the individual tree.",
        "visitorNotes": "Entry is free and the estate opens Sundays from 10am to 4pm, except Christmas Day; advance booking is recommended. Keep to well-trodden paths and check for weather or conservation closures.",
        "visitorInfoUrl": "https://mhnsw.au/visit-us/rouse-hill-estate/plan-your-visit/",
        "provenance": {
          "provider": "Heritage NSW",
          "dataset": "State Heritage Inventory",
          "sourceRecordId": "5044989",
          "sourceUrl": "https://apps.environment.nsw.gov.au/dpcheritageapp/ViewHeritageItemDetails.aspx?ID=5044989",
          "reuseBasis": "Manually curated factual venue record; no source text, dataset or media reproduced",
          "importedAt": "2026-08-21T00:37:23.000Z",
          "reviewedAt": "2026-08-21T00:37:23.000Z"
        }
      }
    },
    {
      "type": "Feature",
      "geometry": {
        "type": "Point",
        "coordinates": [
          151.168191,
          -33.7671812
        ]
      },
      "properties": {
        "id": "ku-ring-gai:swain-gardens-cherry-blossoms",
        "name": "Swain Gardens Cherry Blossoms",
        "suburb": "Killara",
        "streetAddress": "77 Stanhope Road, Killara",
        "councilArea": "Ku-ring-gai Council",
        "group": "Flowering cherry",
        "access": "Public access",
        "lastChecked": "2026-08-21",
        "source": "Swain Gardens records — Ku-ring-gai Council",
        "locationType": "venue",
        "scientificName": "Prunus sp.",
        "commonName": "Cherry blossoms",
        "locationConfidence": "Official",
        "taxonConfidence": "Official common name and genus only; species and cultivar not confirmed",
        "evidenceSummary": "Ku-ring-gai Council's annual report identifies white cherry blossom at Swain Gardens, and its adopted landscape master plan records cherry trees near the gazebo. This pin marks the public garden, not individual trees.",
        "visitorNotes": "The gardens normally open daily from 8am to 6pm. Access includes narrow paths, steep inclines and steps; keep dogs leashed and stay on established paths.",
        "visitorInfoUrl": "https://www.krg.nsw.gov.au/Things-to-do/Parks-playgrounds-and-sportsfields/Swain-Gardens",
        "provenance": {
          "provider": "Ku-ring-gai Council",
          "dataset": "Official annual report and Swain Gardens landscape master plan",
          "sourceRecordId": "swain-gardens-cherry-blossoms",
          "sourceUrl": "https://www.krg.nsw.gov.au/files/assets/public/v/2/hptrim/information-management-publications-public-website-ku-ring-gai-council-website-council/annual-report-2021-2022.pdf",
          "reuseBasis": "Manually curated factual venue record; no Council text, dataset, plan diagram or media reproduced",
          "importedAt": "2026-08-21T00:37:23.000Z",
          "reviewedAt": "2026-08-21T00:37:23.000Z"
        }
      }
    },
    {
      "type": "Feature",
      "geometry": {
        "type": "Point",
        "coordinates": [
          151.201773542328,
          -33.8763133956536
        ]
      },
      "properties": {
        "id": "property-nsw:chinese-garden-pink-plum-blossom",
        "name": "Chinese Garden of Friendship Pink Plum Blossom",
        "suburb": "Darling Harbour",
        "streetAddress": "Pier Street at Harbour Street, Darling Harbour",
        "councilArea": "City of Sydney",
        "group": "Flowering plum",
        "access": "Ticketed venue",
        "lastChecked": "2026-08-21",
        "source": "Chinese Garden spring blooms — Darling Harbour",
        "locationType": "venue",
        "commonName": "Pink plum blossom",
        "locationConfidence": "Official",
        "taxonConfidence": "Official common name and hybrid parent description only; exact taxon not confirmed",
        "evidenceSummary": "The official Darling Harbour garden article identifies Chinese plum blossoms and describes its pink plum blossom as a cross with purple-leaved plum. This venue-level record does not assign an unsupported botanical hybrid name.",
        "visitorNotes": "The garden has paid daily admission and closes on Good Friday and Christmas Day. Visitors must remain on stone or paved paths and must not enter garden beds, lawns, trees or rockeries.",
        "visitorInfoUrl": "https://www.darlingharbour.com/precincts/chinese-garden",
        "provenance": {
          "provider": "Property NSW",
          "dataset": "Official Darling Harbour garden article",
          "sourceRecordId": "chinese-garden-pink-plum-blossom",
          "sourceUrl": "https://www.darlingharbour.com/editorials/whats-blooming-this-spring",
          "reuseBasis": "Manually curated factual venue record; no source text, dataset or media reproduced",
          "importedAt": "2026-08-21T00:37:23.000Z",
          "reviewedAt": "2026-08-21T00:37:23.000Z"
        }
      }
    }
  ]
}
